{"type": "FeatureCollection", "features": [ {"type": "Feature", "properties": {"norad_id": 43437, "name": "SENTINEL-3B", "group": "resource", "lat": 75.03818368224434, "lon": -78.82019078703455, "alt_km": 794.4228675921568, "timestamp": "2025-12-27T14:26:30.174217+00:00", "meta": {"OBJECT_NAME": "SENTINEL-3B", "OBJECT_ID": "2018-039A", "EPOCH": "2025-12-27T03:51:56.373696", "MEAN_MOTION": 14.26739648, "ECCENTRICITY": 0.00015485, "INCLINATION": 98.6248, "RA_OF_ASC_NODE": 66.1383, "ARG_OF_PERICENTER": 87.2146, "MEAN_ANOMALY": 272.9212, "EPHEMERIS_TYPE": 0, "CLASSIFICATION_TYPE": "U", "NORAD_CAT_ID": 43437, "ELEMENT_SET_NO": 999, "REV_AT_EPOCH": 39959, "BSTAR": 8.1690415e-05, "MEAN_MOTION_DOT": 1.54e-06, "MEAN_MOTION_DDOT": 0}, "tle": {"line1": "1 43437U 18039A   25361.16106914  .00000154  00000+0  81690-4 0  9994", "line2": "2 43437  98.6248  66.1383 0001548  87.2146 272.9212 14.26739648399593"}}, "geometry": {"type": "Point", "coordinates": [-78.82019078703455, 75.03818368224434]}}, {"type": "Feature", "properties": {"norad_id": 43461, "name": "GAOFEN-5 01", "group": "resource", "lat": 81.53163766461513, "lon": -129.87812164953414, "alt_km": 684.6205182944268, "timestamp": "2025-12-27T14:26:30.174227+00:00", "meta": {"OBJECT_NAME": "GAOFEN-5 01", "OBJECT_ID": "2018-043A", "EPOCH": "2025-12-26T21:35:04.985664", "MEAN_MOTION": 14.6042519, "ECCENTRICITY": 5.96e-05, "INCLINATION": 98.4347, "RA_OF_ASC_NODE": 324.1154, "ARG_OF_PERICENTER": 225.5814, "MEAN_ANOMALY": 134.5337, "EPHEMERIS_TYPE": 0, "CLASSIFICATION_TYPE": "U", "NORAD_CAT_ID": 43461, "ELEMENT_SET_NO": 999, "REV_AT_EPOCH": 40654, "BSTAR": 0.00012641, "MEAN_MOTION_DOT": 5.63e-06, "MEAN_MOTION_DDOT": 0}, "tle": {"line1": "1 43461U 18043A   25360.89936326  .00000563  00000+0  12641-3 0  9996", "line2": "2 43461  98.4347 324.1154 0000596 225.5814 134.5337 14.60425190406549"}}, "geometry": {"type": "Point", "coordinates": [-129.87812164953414, 81.53163766461513]}}, {"type": "Feature", "properties": {"norad_id": 43484, "name": "GAOFEN-6", "group": "resource", "lat": -48.26762397674104, "lon": -123.47279136521067, "alt_km": 654.5117859869433, "timestamp": "2025-12-27T14:26:30.174237+00:00", "meta": {"OBJECT_NAME": "GAOFEN-6", "OBJECT_ID": "2018-048A", "EPOCH": "2025-12-27T06:54:11.460096", "MEAN_MOTION": 14.76593379, "ECCENTRICITY": 0.00123752, "INCLINATION": 97.8008, "RA_OF_ASC_NODE": 65.0646, "ARG_OF_PERICENTER": 20.277, "MEAN_ANOMALY": 339.893, "EPHEMERIS_TYPE": 0, "CLASSIFICATION_TYPE": "U", "NORAD_CAT_ID": 43484, "ELEMENT_SET_NO": 999, "REV_AT_EPOCH": 40802, "BSTAR": 0.00019254689, "MEAN_MOTION_DOT": 1.296e-05, "MEAN_MOTION_DDOT": 0}, "tle": {"line1": "1 43484U 18048A   25361.28763264  .00001296  00000+0  19255-3 0  9991", "line2": "2 43484  97.8008  65.0646 0012375  20.2770 339.8930 14.76593379408023"}}, "geometry": {"type": "Point", "coordinates": [-123.47279136521067, -48.26762397674104]}}, {"type": "Feature", "properties": {"norad_id": 43585, "name": "GAOFEN-11 01", "group": "resource", "lat": -33.37889592172833, "lon": 69.16041584060284, "alt_km": 424.04699565502597, "timestamp": "2025-12-27T14:26:30.174248+00:00", "meta": {"OBJECT_NAME": "GAOFEN-11 01", "OBJECT_ID": "2018-063A", "EPOCH": "2025-12-27T06:50:16.673280", "MEAN_MOTION": 15.49638894, "ECCENTRICITY": 0.0003932, "INCLINATION": 97.1532, "RA_OF_ASC_NODE": 64.0998, "ARG_OF_PERICENTER": 236.9328, "MEAN_ANOMALY": 123.1546, "EPHEMERIS_TYPE": 0, "CLASSIFICATION_TYPE": "U", "NORAD_CAT_ID": 43585, "ELEMENT_SET_NO": 999, "REV_AT_EPOCH": 41367, "BSTAR": 0.00038102547, "MEAN_MOTION_DOT": 0.00021024, "MEAN_MOTION_DDOT": 0}, "tle": {"line1": "1 43585U 18063A   25361.28491520  .00021024  00000+0  38103-3 0  9997", "line2": "2 43585  97.1532  64.0998 0003932 236.9328 123.1546 15.49638894413670"}}, "geometry": {"type": "Point", "coordinates": [69.16041584060284, -33.37889592172833]}}, {"type": "Feature", "properties": {"norad_id": 43613, "name": "ICESAT-2", "group": "resource", "lat": 8.097094894188414, "lon": -115.5374080414411, "alt_km": 483.31020268218435, "timestamp": "2025-12-27T14:26:30.174258+00:00", "meta": {"OBJECT_NAME": "ICESAT-2", "OBJECT_ID": "2018-070A", "EPOCH": "2025-12-27T06:32:56.407776", "MEAN_MOTION": 15.28293292, "ECCENTRICITY": 0.00032682, "INCLINATION": 92.0037, "RA_OF_ASC_NODE": 244.6593, "ARG_OF_PERICENTER": 108.176, "MEAN_ANOMALY": 251.9846, "EPHEMERIS_TYPE": 0, "CLASSIFICATION_TYPE": "U", "NORAD_CAT_ID": 43613, "ELEMENT_SET_NO": 999, "REV_AT_EPOCH": 40620, "BSTAR": 0.00047686963, "MEAN_MOTION_DOT": 0.00013145, "MEAN_MOTION_DDOT": 0}, "tle": {"line1": "1 43613U 18070A   25361.27287509  .00013145  00000+0  47687-3 0  9998", "line2": "2 43613  92.0037 244.6593 0003268 108.1760 251.9846 15.28293292406205"}}, "geometry": {"type": "Point", "coordinates": [-115.5374080414411, 8.097094894188414]}}, {"type": "Feature", "properties": {"norad_id": 43719, "name": "HYSIS", "group": "resource", "lat": 15.589153512154606, "lon": 62.2545963318632, "alt_km": 633.8480952023065, "timestamp": "2025-12-27T14:26:30.174268+00:00", "meta": {"OBJECT_NAME": "HYSIS", "OBJECT_ID": "2018-096A", "EPOCH": "2025-12-27T07:52:28.278048", "MEAN_MOTION": 14.78683788, "ECCENTRICITY": 7.416e-05, "INCLINATION": 98.0074, "RA_OF_ASC_NODE": 64.2332, "ARG_OF_PERICENTER": 54.485, "MEAN_ANOMALY": 305.643, "EPHEMERIS_TYPE": 0, "CLASSIFICATION_TYPE": "U", "NORAD_CAT_ID": 43719, "ELEMENT_SET_NO": 999, "REV_AT_EPOCH": 38202, "BSTAR": 0.00018238767, "MEAN_MOTION_DOT": 1.285e-05, "MEAN_MOTION_DDOT": 0}, "tle": {"line1": "1 43719U 18096A   25361.32810507  .00001285  00000+0  18239-3 0  9992", "line2": "2 43719  98.0074  64.2332 0000741  54.4850 305.6430 14.78683788382028"}}, "geometry": {"type": "Point", "coordinates": [62.2545963318632, 15.589153512154606]}}, {"type": "Feature", "properties": {"norad_id": 43783, "name": "KAZSTSAT", "group": "resource", "lat": -79.58505947096644, "lon": 81.54279809778409, "alt_km": 571.8003156007353, "timestamp": "2025-12-27T14:26:30.174278+00:00", "meta": {"OBJECT_NAME": "KAZSTSAT", "OBJECT_ID": "2018-099AB", "EPOCH": "2025-12-27T01:59:47.585760", "MEAN_MOTION": 14.99376687, "ECCENTRICITY": 0.0006458, "INCLINATION": 97.4508, "RA_OF_ASC_NODE": 35.6488, "ARG_OF_PERICENTER": 266.4157, "MEAN_ANOMALY": 93.6328, "EPHEMERIS_TYPE": 0, "CLASSIFICATION_TYPE": "U", "NORAD_CAT_ID": 43783, "ELEMENT_SET_NO": 999, "REV_AT_EPOCH": 38551, "BSTAR": 8.5264892e-05, "MEAN_MOTION_DOT": 9.87e-06, "MEAN_MOTION_DDOT": 0}, "tle": {"line1": "1 43783U 18099AB  25361.08318965  .00000987  00000+0  85265-4 0  9992", "line2": "2 43783  97.4508  35.6488 0006458 266.4157  93.6328 14.99376687385511"}}, "geometry": {"type": "Point", "coordinates": [81.54279809778409, -79.58505947096644]}}, {"type": "Feature", "properties": {"norad_id": 43831, "name": "SAUDISAT 5A", "group": "resource", "lat": -60.11066496483394, "lon": 74.45276115904532, "alt_km": 495.4881024772503, "timestamp": "2025-12-27T14:26:30.174289+00:00", "meta": {"OBJECT_NAME": "SAUDISAT 5A", "OBJECT_ID": "2018-102A", "EPOCH": "2025-12-27T06:50:18.843648", "MEAN_MOTION": 15.25838016, "ECCENTRICITY": 0.00108889, "INCLINATION": 97.3331, "RA_OF_ASC_NODE": 61.1949, "ARG_OF_PERICENTER": 30.6817, "MEAN_ANOMALY": 329.5056, "EPHEMERIS_TYPE": 0, "CLASSIFICATION_TYPE": "U", "NORAD_CAT_ID": 43831, "ELEMENT_SET_NO": 999, "REV_AT_EPOCH": 38944, "BSTAR": 0.00028080456, "MEAN_MOTION_DOT": 7.126e-05, "MEAN_MOTION_DDOT": 0}, "tle": {"line1": "1 43831U 18102A   25361.28494032  .00007126  00000+0  28080-3 0  9996", "line2": "2 43831  97.3331  61.1949 0010888  30.6817 329.5056 15.25838016389444"}}, "geometry": {"type": "Point", "coordinates": [74.45276115904532, -60.11066496483394]}}, {"type": "Feature", "properties": {"norad_id": 43833, "name": "SAUDISAT 5B", "group": "resource", "lat": 9.874102465020774, "lon": 62.98484327246319, "alt_km": 481.50672811185905, "timestamp": "2025-12-27T14:26:30.174298+00:00", "meta": {"OBJECT_NAME": "SAUDISAT 5B", "OBJECT_ID": "2018-102C", "EPOCH": "2025-12-27T08:06:14.630976", "MEAN_MOTION": 15.26182363, "ECCENTRICITY": 0.00116443, "INCLINATION": 97.3425, "RA_OF_ASC_NODE": 64.0115, "ARG_OF_PERICENTER": 32.4616, "MEAN_ANOMALY": 327.7337, "EPHEMERIS_TYPE": 0, "CLASSIFICATION_TYPE": "U", "NORAD_CAT_ID": 43833, "ELEMENT_SET_NO": 999, "REV_AT_EPOCH": 38956, "BSTAR": 0.00026355975, "MEAN_MOTION_DOT": 6.755e-05, "MEAN_MOTION_DDOT": 0}, "tle": {"line1": "1 43833U 18102C   25361.33766934  .00006755  00000+0  26356-3 0  9998", "line2": "2 43833  97.3425  64.0115 0011644  32.4616 327.7337 15.26182363389568"}}, "geometry": {"type": "Point", "coordinates": [62.98484327246319, 9.874102465020774]}}, {"type": "Feature", "properties": {"norad_id": 44622, "name": "GAOFEN-10R", "group": "resource", "lat": 17.590180124117698, "lon": 131.73292403012587, "alt_km": 625.4139624340405, "timestamp": "2025-12-27T14:26:30.174309+00:00", "meta": {"OBJECT_NAME": "GAOFEN-10R", "OBJECT_ID": "2019-066A", "EPOCH": "2025-12-27T07:14:06.184608", "MEAN_MOTION": 14.82842569, "ECCENTRICITY": 0.0006791, "INCLINATION": 98.0296, "RA_OF_ASC_NODE": 308.8664, "ARG_OF_PERICENTER": 358.7097, "MEAN_ANOMALY": 1.4097, "EPHEMERIS_TYPE": 0, "CLASSIFICATION_TYPE": "U", "NORAD_CAT_ID": 44622, "ELEMENT_SET_NO": 999, "REV_AT_EPOCH": 33690, "BSTAR": 0.00024106845, "MEAN_MOTION_DOT": 1.898e-05, "MEAN_MOTION_DDOT": 0}, "tle": {"line1": "1 44622U 19066A   25361.30146047  .00001898  00000+0  24107-3 0  9994", "line2": "2 44622  98.0296 308.8664 0006791 358.7097   1.4097 14.82842569336902"}}, "geometry": {"type": "Point", "coordinates": [131.73292403012587, 17.590180124117698]}}]}